[
    {
        "CCSDS_OMM_VERS": "3.0",
        "COMMENT": "GENERATED VIA SPACE-TRACK.ORG API",
        "CREATION_DATE": "2025-05-04T02:26:54",
        "ORIGINATOR": "18 SPCS",
        "OBJECT_NAME": "NAVSTAR 70 (USA 251)",
        "OBJECT_ID": "2014-026A",
        "CENTER_NAME": "EARTH",
        "REF_FRAME": "TEME",
        "TIME_SYSTEM": "UTC",
        "MEAN_ELEMENT_THEORY": "SGP4",
        "EPOCH": "2025-05-03T15:11:50.755776",
        "MEAN_MOTION": "2.00577320",
        "ECCENTRICITY": "0.00355840",
        "INCLINATION": "56.6574",
        "RA_OF_ASC_NODE": "347.4417",
        "ARG_OF_PERICENTER": "320.2657",
        "MEAN_ANOMALY": "39.5112",
        "EPHEMERIS_TYPE": "0",
        "CLASSIFICATION_TYPE": "U",
        "NORAD_CAT_ID": "39741",
        "ELEMENT_SET_NO": "999",
        "REV_AT_EPOCH": "8032",
        "BSTAR": "0.00000000000000",
        "MEAN_MOTION_DOT": "-0.00000098",
        "MEAN_MOTION_DDOT": "0.0000000000000",
        "SEMIMAJOR_AXIS": "26559.137",
        "PERIOD": "717.928",
        "APOAPSIS": "20275.510",
        "PERIAPSIS": "20086.494",
        "OBJECT_TYPE": "PAYLOAD",
        "RCS_SIZE": "LARGE",
        "COUNTRY_CODE": "US",
        "LAUNCH_DATE": "2014-05-17",
        "SITE": "AFETR",
        "DECAY_DATE": null,
        "FILE": "4718307",
        "GP_ID": "286797506",
        "TLE_LINE0": "0 NAVSTAR 70 (USA 251)",
        "TLE_LINE1": "1 39741U 14026A   25123.63322634 -.00000098  00000-0  00000-0 0  9997",
        "TLE_LINE2": "2 39741  56.6574 347.4417 0035584 320.2657  39.5112  2.00577320 80329"
    }
]